#dP2024  6 25 18  0  0.00000000      96 __u+U IGS20 EXT  IAC
## 2320 237600.00000000   900.00000000 60486 0.7500000000000
+   54   G02G03G04G05G06G07G08G09G10G11G12G13G14G15G16G17G18
+        G19G20G21G22G23G24G25G26G27G28G29G30G31G32R01R02R03
+        R04R05R07R08R09R11R12R13R14R15R16R17R18R19R20R21R22
+        R24R25R26  0  0  0  0  0  0  0  0  0  0  0  0  0  0
+          0  0  0  0  0  0  0  0  0  0  0  0  0  0  0  0  0
++         8  6  8  8 10  9  8  8 10  6  8  7  9  7  9  7  9
++         9 10  8  9  8  8  9  8  8  7  8  8  8  8  9  9  9
++         7  8  8  8  8  8  8  9  8  7  8  8  8  8  8  8  9
++         6  8  9  0  0  0  0  0  0  0  0  0  0  0  0  0  0
++         0  0  0  0  0  0  0  0  0  0  0  0  0  0  0  0  0
%c M  cc GPS ccc cccc cccc cccc cccc ccccc ccccc ccccc ccccc
%c cc cc ccc ccc cccc cccc cccc cccc ccccc ccccc ccccc ccccc
%f  0.0000000  0.000000000  0.00000000000  0.000000000000000
%f  0.0000000  0.000000000  0.00000000000  0.000000000000000
%i    0    0    0    0      0      0      0      0         0
%i    0    0    0    0      0      0      0      0         0
/* IAC                                ULTRA-RAPID PREDICTION
/* S/V CLOCKS ARE ALIGNED TO GNSS TIME                      
/* G:C1WC2W R:C1PC2P E:C1XC5X C:C2IC6I J:C1CC2S             
/* PCV:IGS20_2317 OL/AL:FES2004  NONE     YN ORB:CoN CLK:CoN
*  2024 06 26  2  0  0.00000000
PG02 -21040.324874 -11106.877765  12588.714363   -410.789322
PG03 -15801.206331    903.372683  21146.162345    430.694835
PG04 -26167.650241  -1491.625721   4752.343384    391.014505
PG05   8799.175808  15177.619282 -20097.796805   -177.616043
PG06   1044.132160  20600.733366  16729.227345    197.577794
PG07 -14409.594861   5795.365955 -21067.084427    -83.619578
PG08 -21191.109798  -7504.962308 -14580.157071    247.030620
PG09 -24399.228197   8052.250690  -6922.077351    249.058166
PG10  10243.801079 -24301.244252    893.355018    -51.206582
PG11  11436.089927  23523.458544   4819.325276   -693.076680
PG12  15360.052276   2612.372426  21223.667596   -517.199913
PG13  13415.967015  13414.344369 -18896.188576    660.464899
PG14 -13174.177795  22731.393986  -2952.840650    434.262515
PG15  21773.656428   5550.062891 -14808.834030    174.242093
PG16  -4919.963292 -18215.534679 -18841.769605   -253.968720
PG17 -14601.541915  13226.294889  18309.541653    688.745579
PG18  13532.253641  -6573.985271 -21887.092744   -629.523508
PG19  -4639.770478  14721.291514  21393.683873    501.681096
PG20   3885.813383  22831.987263 -13071.034686    373.431138
PG21 -20877.964389 -15647.759532   7741.870641    113.024160
PG22  -9039.443192  24543.354253   5860.560257    -32.007684
PG23  15517.628599 -18480.812663 -10838.652331    259.195243
PG24  21067.977986  13166.799053   9520.671826   -480.003141
PG25  17400.096885  -8817.741705  17572.708762    497.825360
PG26   2704.173686 -25096.478757  -7785.810817    130.761329
PG27 -10844.549051 -13285.496056 -20676.675960    -29.428850
PG28    616.683812 -19605.447757  17898.570157   -305.040481
PG29  26043.612033  -3630.889686  -4230.659745   -592.526469
PG30  -6255.897276  16282.009517 -19807.830177   -368.173182
PG31  -8226.753339 -23247.998706   9115.110712   -227.181461
PG32  11573.356043 -14658.543798  19021.256736   -614.938915
PR01 -22798.884315  11050.846419   2889.072115     89.513885
PR02 -15503.353942  14934.967498 -13690.373660    -23.442701
PR03   1253.653733  11350.656319 -22767.417249    102.757426
PR04  16664.323266   1538.948001 -19216.737570    242.765676
PR05  23288.529242  -8901.784310  -5330.300350    133.655668
PR07  -2120.646434 -10993.954660  22956.352578     85.352933
PR08 -16916.490606  -1353.442539  19116.251558     -5.339749
PR09   5273.610749 -22915.508359  10015.675164    194.274365
PR11  -8859.768782 -13673.438921 -19619.489035     20.202284
PR12 -10780.280707   7639.316602 -21791.376185     41.743565
PR13  -6579.837146  21312.225177 -12383.697123    -48.702582
PR14   2692.243624  24330.254449   7149.033930     26.636560
PR15   9351.960689  12100.829728  20436.155627     78.473342
PR16  10648.107959  -7471.302914  21964.353084     26.813794
PR17  12836.848504  16401.084890  14761.460739     99.139170
PR18  21400.993825  13810.498733   -848.979717    148.847608
PR19  19854.127532   5984.939369 -14866.267319   -281.651107
PR20   4768.028054  -9352.114737 -23246.814587   -115.103976
PR21 -12398.972614 -16408.475074 -15074.220835   -112.389086
PR22 -21346.125453 -13821.399421   2081.188396     97.815661
PR24  -4107.042666  10274.123163  22995.028636    -61.338565
PR25 -12268.277137 -17060.661243 -14442.175378    -85.495547
PR26 -15919.041383  -2138.900005  19827.345865     -5.494883
*  2024 06 26  2 15  0.00000000
PG02 -21744.053580 -12125.159741  10146.386562   -410.782880
PG03 -14896.484327  -1412.121068  21771.674355    430.710434
PG04 -25498.062273  -1783.508042   7494.438889    391.021683
PG05   7972.132442  17204.984810 -18744.775363   -177.617186
PG06   -247.798237  19066.254203  18501.421090    197.558239
PG07 -15896.712541   3803.950538 -20498.808348    -83.611373
PG08 -19495.495998  -7966.968120 -16543.303586    247.046372
PG09 -25054.996600   7908.791793  -4167.284821    249.071447
PG10  10406.781007 -24139.301437  -2027.981537    -51.214516
PG11  10845.984215  23077.458706   7564.448000   -693.083525
PG12  14285.706020   4879.700925  21570.783975   -517.202737
PG13  11228.412629  13491.340898 -20215.360715    660.467214
PG14 -13256.108483  22144.358475  -5731.756580    434.270688
PG15  20179.789848   6233.317232 -16719.575972    174.245901
PG16  -3858.483088 -19939.052122 -17206.975097   -253.959112
PG17 -16519.237215  13248.914050  16551.817100    688.739885
PG18  14994.902687  -4575.195026 -21456.745573   -629.527632
PG19  -7089.392862  14723.325649  20679.412290    501.685962
PG20   3385.099656  24121.454289 -10703.784164    373.430804
PG21 -21213.016366 -16241.263585   5065.763334    113.021857
PG22  -9449.383428  24850.033819   3081.203458    -32.011992
PG23  15200.098719 -17118.970266 -13267.353945    259.203415
PG24  21539.855878  14080.474925   6960.517267   -480.005102
PG25  16773.743888  -6734.788318  19038.806818    497.825763
PG26   3258.055441 -25688.138604  -5102.656947    130.755493
PG27  -8533.118682 -13671.639051 -21466.493637    -29.429868
PG28   2080.317110 -18047.022439  19366.411896   -305.055327
PG29  26370.425043  -3436.116076  -1385.054183   -592.524886
PG30  -7791.310973  14485.864251 -20658.350928   -368.167492
PG31  -7275.692362 -22424.047101  11623.909220   -227.181275
PG32  13625.626961 -14817.181305  17438.621774   -614.937570
PR01 -22251.713630  10891.973442   6041.277143     89.514920
PR02 -16773.551425  15796.439982 -10969.585042    -23.442854
PR03  -1150.458787  12738.726690 -22032.844626    102.758063
PR04  14445.706454   2648.909145 -20822.989391    242.767064
PR05  22458.921105  -8647.086095  -8413.302611    133.656235
PR07    298.325326 -12376.644221  22335.246627     85.353685
PR08 -14737.770749  -2468.565687  20741.856180     -5.340008
PR09   5217.129417 -21515.633597  12769.745853    194.276266
PR11  -8941.251188 -15981.821113 -17752.153412     20.201146
PR12 -10726.293334   4894.705418 -22590.746282     41.744038
PR13  -6482.272966  19626.589221 -14955.699165    -48.702922
PR14   2803.740492  25018.893077   4047.723213     26.636697
PR15   9398.226023  14514.946684  18772.443122     78.473051
PR16  10600.651719  -4717.364527  22735.134339     26.814087
PR17  11226.690433  15264.425859  17103.448017     99.142231
PR18  21427.728017  13588.710511   2391.268450    148.849336
PR19  21347.649408   6760.820071 -12229.882506   -281.652333
PR20   7158.187778  -7759.414981 -23216.905613   -115.104512
PR21 -10766.295855 -15235.328407 -17386.219884   -112.391960
PR22 -21475.009355 -13726.812019  -1130.428330     97.810867
PR24  -6534.878398   8804.160815  23041.265207    -61.339859
PR25 -10716.510191 -15909.927237 -16799.808501    -85.523246
PR26 -13676.488052  -3321.147284  21287.994257     -5.494090
EOF
